[{"OBJECT_NAME":"STARLINK-32554","OBJECT_ID":"2024-222Y","EPOCH":"2026-03-09T10:52:07.379616","MEAN_MOTION":15.27605364,"ECCENTRICITY":7.41e-6,"INCLINATION":42.9989,"RA_OF_ASC_NODE":137.4392,"ARG_OF_PERICENTER":293.9998,"MEAN_ANOMALY":66.0845,"EPHEMERIS_TYPE":0,"CLASSIFICATION_TYPE":"U","NORAD_CAT_ID":62136,"ELEMENT_SET_NO":999,"REV_AT_EPOCH":7276,"BSTAR":0.0013847958,"MEAN_MOTION_DOT":0.00038071,"MEAN_MOTION_DDOT":0},{"OBJECT_NAME":"FENGYUN 1C DEB","OBJECT_ID":"1999-025BNP","EPOCH":"2026-03-08T20:32:05.282880","MEAN_MOTION":15.24866573,"ECCENTRICITY":0.00982022,"INCLINATION":98.3915,"RA_OF_ASC_NODE":217.6412,"ARG_OF_PERICENTER":158.7529,"MEAN_ANOMALY":201.7829,"EPHEMERIS_TYPE":0,"CLASSIFICATION_TYPE":"U","NORAD_CAT_ID":31281,"ELEMENT_SET_NO":999,"REV_AT_EPOCH":1008,"BSTAR":0.0025465872,"MEAN_MOTION_DOT":0.00073171,"MEAN_MOTION_DDOT":0}]
